IRIDIUM 116             
1 43072U 17083C   24101.48176309  .00000257  00000+0  84840-4 0  9992
2 43072  86.3918 295.3928 0001842  83.4794 276.6611 14.34217367329833
IRIDIUM 130             
1 43073U 17083D   24101.51982013  .00000097  00000+0  27457-4 0  9997
2 43073  86.3921 295.5741 0002267  88.2499 271.8957 14.34215940329789
IRIDIUM 151             
1 43074U 17083E   24101.49444748  .00000104  00000+0  30015-4 0  9996
2 43074  86.3915 295.4263 0001923 100.7757 259.3655 14.34216426329805
IRIDIUM 134             
1 43075U 17083F   24101.81157529  .00000104  00000+0  30082-4 0  9995
2 43075  86.3916 295.2909 0002258  86.0106 274.1348 14.34216300329814
IRIDIUM 137             
1 43076U 17083G   24101.54518683  .00000104  00000+0  30135-4 0  9997
2 43076  86.3918 295.4791 0001644  90.6567 269.4817 14.34216002329848
IRIDIUM 141             
1 43077U 17083H   24101.53883159  .00000125  00000+0  37566-4 0  9998
2 43077  86.3913 295.3574 0002134  92.4377 267.7063 14.34218610329847
IRIDIUM 153             
1 43078U 17083J   24101.83985373  .00000133  00000+0  40472-4 0  9992
2 43078  86.3925 263.6602 0002414 103.2072 256.9393 14.34217782330998
IRIDIUM 131             
1 43079U 17083K   24101.52616135  .00000104  00000+0  30154-4 0  9990
2 43079  86.3918 295.4958 0001974  91.4098 268.7324 14.34215957329775
